{
    "links": {
        "self": "http://www.neowsapp.com/rest/v1/neo/3617390?api_key=iIulBulltgU6a56xZRHN4H3l9WmuAYTsLGpBGhQ2"
    },
    "id": "3617390",
    "neo_reference_id": "3617390",
    "name": "(2012 VH46)",
    "designation": "2012 VH46",
    "nasa_jpl_url": "http://ssd.jpl.nasa.gov/sbdb.cgi?sstr=3617390",
    "absolute_magnitude_h": 24.9,
    "estimated_diameter": {
        "kilometers": {
            "estimated_diameter_min": 0.0278326768,
            "estimated_diameter_max": 0.0622357573
        },
        "meters": {
            "estimated_diameter_min": 27.8326768072,
            "estimated_diameter_max": 62.2357573367
        },
        "miles": {
            "estimated_diameter_min": 0.0172944182,
            "estimated_diameter_max": 0.0386714948
        },
        "feet": {
            "estimated_diameter_min": 91.3145593761,
            "estimated_diameter_max": 204.1855621004
        }
    },
    "is_potentially_hazardous_asteroid": false,
    "close_approach_data": [
        {
            "close_approach_date": "2012-10-20",
            "close_approach_date_full": "2012-Oct-20 01:17",
            "epoch_date_close_approach": 1350695820000,
            "relative_velocity": {
                "kilometers_per_second": "7.1807959952",
                "kilometers_per_hour": "25850.8655827973",
                "miles_per_hour": "16062.7225617109"
            },
            "miss_distance": {
                "astronomical": "0.0636824013",
                "lunar": "24.7724541057",
                "kilometers": "9526751.590965231",
                "miles": "5919648.9408569478"
            },
            "orbiting_body": "Earth"
        }
    ],
    "orbital_data": {
        "orbit_id": "8",
        "orbit_determination_date": "2017-04-06 08:48:03",
        "first_observation_date": "2012-11-12",
        "last_observation_date": "2012-11-22",
        "data_arc_in_days": 10,
        "observations_used": 27,
        "orbit_uncertainty": "8",
        "minimum_orbit_intersection": ".0600497",
        "jupiter_tisserand_invariant": "3.748",
        "epoch_osculation": "2456245.5",
        "eccentricity": ".4676684059927915",
        "semi_major_axis": "1.943239837501757",
        "inclination": "7.966499686425374",
        "ascending_node_longitude": "224.7906397254864",
        "orbital_period": "989.4367444837865",
        "perihelion_distance": "1.034447960235619",
        "perihelion_argument": "152.1899280473557",
        "aphelion_distance": "2.852031714767895",
        "perihelion_time": "2456210.978121961023",
        "mean_anomaly": "12.56055646135888",
        "mean_motion": ".3638433704903701",
        "equinox": "J2000",
        "orbit_class": {
            "orbit_class_type": "AMO",
            "orbit_class_description": "Near-Earth asteroid orbits similar to that of 1221 Amor",
            "orbit_class_range": "1.017 AU < q (perihelion) < 1.3 AU"
        }
    },
    "is_sentry_object": false
}